"ACCOUNT__C","ACCOUNT__R.NAME","DISTRIBUTOR_ADDRESS__C","DISTRIBUTOR_ADDRESS__CITY__S","DISTRIBUTOR_ADDRESS__COUNTRYCODE__S","DISTRIBUTOR_ADDRESS__GEOCODEACCURACY__S","DISTRIBUTOR_ADDRESS__LATITUDE__S","DISTRIBUTOR_ADDRESS__LONGITUDE__S","DISTRIBUTOR_ADDRESS__POSTALCODE__S","DISTRIBUTOR_ADDRESS__STATECODE__S","DISTRIBUTOR_ADDRESS__STREET__S","DISTRIBUTOR_LOCATION__C","DISTRIBUTOR_LOCATION__LATITUDE__S","DISTRIBUTOR_LOCATION__LONGITUDE__S","DISTRIBUTOR_LOGO__C","DISTRIBUTOR_PRODUCT_URL__C","NAME","PRODUCT__C","STORE__C","STORE__R.NAME","PRODUCT__R.NAME"
"001O4000009lWiPIAU","Msc Direct","","Mountain","US","","","","","","1600 Amphitheatre Parkway","","36.753354","-76.055677","","","D-00000001","01t3u000003ROr1AAG","0ZE7A00000001i9WAA","Walter-EN_US","Surfox Basic"
"001O4000009lVeLIAU","EMI Supply","","","","","","","","","","","47.680076","-122.124434","","","D-00000002","","0ZE7A00000001i9WAA","Walter-EN_US",""
"001O4000009lZDGIA2","Home Depot","","","","","","","","","","","40.79194","-111.917375","","","D-00000003","","0ZE7A00000001i9WAA","Walter-EN_US",""
"","","","","US","","","","","","","","38.03637","-97.8803","","","D-00000004","","0ZE7A00000001i9WAA","Walter-EN_US",""
"","","","","US","","","","","","","","38.06937","-97.8682","","","D-00000005","","0ZE7A00000001i9WAA","Walter-EN_US",""
"","","","","US","","","","","","","","38.0709","-97.8889","","","D-00000006","","0ZE7A00000001i9WAA","Walter-EN_US",""
"001O4000009lLezIAE","Kaman","","Brooklyn","US","","","","11215","","222 First Street","","40.67905","-73.98587","","","D-00000007","01t3u000003ROr1AAG","0ZE7A00000001i9WAA","Walter-EN_US","Surfox Basic"
"001O4000009lYkZIAU","Zoro","","Brooklyn","US","","","","11232","","815 Third Ave","","40.66406","-74.00146","","","D-00000008","","0ZE7A00000001i9WAA","Walter-EN_US",""
"001O4000009lQoRIAU","Weldfabulous","","Brooklyn","US","","","","11232","","951 3rd Ave","","40.66048","-74.00528","","","D-00000009","01t3u000003ROr1AAG","0ZE7A00000001i9WAA","Walter-EN_US","Surfox Basic"
"001O4000009lNTxIAM","Fastenal","","Washington","US","","","","20020","","1107 W Street SE","","38.87022","-76.99141","","","D-00000010","","0ZE7A00000001i9WAA","Walter-EN_US",""
"","","","Newark","US","","","","19702","","42 Albe Dr","","39.65029","-75.71575","","","D-00000011","","0ZE7A00000001i9WAA","Walter-EN_US",""
"001O4000009lXszIAE","Welding OutFitter","","Prescott","US","","","","20109","","12101 Tac Ct","","39.6505","-75.71569","","","D-00000012","01t3u000003ROr1AAG","0ZE7A00000001i9WAA","Walter-EN_US","Surfox Basic"
"001O4000009lNTxIAM","Fastenal","","Manassas","US","","","","20109","","","","38.7855623","-77.5275463","","","D-00000013","","0ZE7A00000001i9WAA","Walter-EN_US",""
"","","","","US","","","","","","","","","","","","D-00000014","","0ZE7A00000001i9WAA","Walter-EN_US",""
"001O4000009mwvqIAA","fireball","","West Allis","US","","","","53227","","4357 Woodlawn Drive","","","","","","D-00000015","","0ZE7A00000001i9WAA","Walter-EN_US",""
"","","","New York","US","","","","10003","","20 Cooper Square","","40.7127753","-74.0059728","","","D-00000016","01t3u000003ROr1AAG","0ZE7A00000001i9WAA","Walter-EN_US","Surfox Basic"
"001O4000009lOJTIA2","Amazon","","Chicago","US","","","","","","","","41.8781","87.6298","","","D-00000017","","0ZE7A00000001i9WAA","Walter-EN_US",""
"001O4000009myBBIAY","Merrimac Industrial","","Hayward","US","","","","94545","","Foley Street","","40.67777","74.55555","","","D-00000018","01t3u000003ROr1AAG","0ZE7A00000001i9WAA","Walter-EN_US","Surfox Basic"
"001O4000009lWiPIAU","Msc Direct","","test","US","","","","25545","","test","","37.09024","-95.712891","","","D-00000019","01t3u000003ROr1AAG","0ZE7A00000001i9WAA","Walter-EN_US","Surfox Basic"
"001O4000009lWiPIAU","Msc Direct","","Southwest Ranches","US","","","","","","","","40.4773991","-74.25908989999999","","","D-00000020","01t3u000003ROr1AAG","0ZE7A00000001i9WAA","Walter-EN_US","Surfox Basic"
"001O4000009lWiPIAU","Msc Direct","","","US","","","","","","","","43.5866269","46.7361189","","","D-00000021","","0ZE7A00000001i9WAA","Walter-EN_US",""
"001O4000009lWiPIAU","Msc Direct","","","US","","","","","","","","42.315407","43.35689199999999","","","D-00000022","","0ZE7A00000001i9WAA","Walter-EN_US",""
"001O4000009lWiPIAU","Msc Direct","","","US","","","","","","","","34.0489281","-111.0937311","","","D-00000023","","0ZE7A00000001i9WAA","Walter-EN_US",""
"001O4000009lWiPIAU","Msc Direct","","Lahore","US","","","","54,000","","Plot No. 23, J 3 Block Block J 3 Phase 2 Johar Town, Lahore, Punjab 54000","","31.4666088","74.2586914","","","D-00000025","","0ZE7A00000001i9WAA","Walter-EN_US",""
"001O4000009lLezIAE","Kaman","","New York","US","","","","","","","","40.9175771","-73.70027209999999","","","D-00000026","","0ZE7A00000001i9WAA","Walter-EN_US",""
"001O4000009lWiPIAU","Msc Direct","","Clanton","US","","","","35045","","1515 7th Street South","","32.3182314","-86.902298","","","D-00000027","","0ZE7A00000001i9WAA","Walter-EN_US",""
"001O4000009lWiPIAU","Msc Direct","","Fairbanks","US","","","","99701","","Van Horn Rd","","63.588753","-154.4930619","","","D-00000028","01t3u000003ROrGAAW","0ZE7A00000001i9WAA","Walter-EN_US","Gold Matrix"
"001O4000009mvTvIAI","Maxwell","","Test city","US","","","","","","Testing location","","36.778261","-119.4179324","","","D-00000029","","0ZE7A00000001i9WAA","Walter-EN_US",""
"001O4000009mvTvIAI","Maxwell","","Alaska","US","","","","49316","","4723400 Gap Dr
Fresno","","63.588753","-154.4930619","","","D-00000030","","0ZE7A00000001i9WAA","Walter-EN_US",""
"001O4000009mvTvIAI","Maxwell","","Graham","US","","","","76450","","1120 Packing House Rd Graham","","31.9685988","-99.9018131","","","D-00000031","","0ZE7A00000001i9WAA","Walter-EN_US",""
"001O4000009lYkZIAU","Zoro","","Fastenal-Rotx","US","","","","76567","","2115
1613 W. Cameron Ave.
Rockdale","","30.5190775","-91.5208624","","","D-00000033","","0ZE7A00000001i9WAA","Walter-EN_US",""
"001O4000009mvTvIAI","Maxwell","","New York","US","","","","","","New Address","","40.7127753","-74.0059728","","","D-00000034","01t3u000003RuSFAA0","0ZE7A00000001i9WAA","Walter-EN_US","Automotive Brush"
"001O4000009flx3IAA","ACIER AGF INC AE-4429494 LONGUEUIL","","Sodus Point","US","","","","14555","","8461 Sill Rd","","40.7127753","-74.0059728","","","D-00000035","01t3u000003RuSFAA0","0ZE7A00000001i9WAA","Walter-EN_US","Automotive Brush"
"001O4000009lYkZIAU","Zoro","","Mantes-la-Jolie","CA","","","","78200","","5 Rue de la Pompe","","48.989323","1.714958","","","D-00000036","01t3u000003ROr1AAG","0ZE7A00000001D6WAI","Walter-FR_CA","Surfox Basic"
"001O4000009lYkZIAU","Zoro","","Jalisco","MX","","","","44100","","PAVO NO. 135 NO. 507, GUADALAJARA CENTRO,","","20.6751707","-103.3473385","","","D-00000037","01t3u000003ROr1AAG","0ZE7A00000001dsWAA","Walter-ES_MX","Surfox Basic"
"001O4000009lYkZIAU","Zoro","","Jalisco","MX","","","","44100","","PAVO NO. 135 NO. 507, GUADALAJARA CENTRO,","","20.6751707","-103.3473385","","","D-00000038","01t3u000003ROr1AAG","0ZE7A00000001i9WAA","Walter-EN_US","Surfox Basic"
"001O4000009lYkZIAU","Zoro","","Jalisco","MX","","","","44100","","PAVO NO. 135 NO. 507, GUADALAJARA CENTRO,","","20.6751707","-103.3473385","","","D-00000039","01t3u000003ROr1AAG","0ZE7A00000001dsWAA","Walter-ES_MX","Surfox Basic"
"001O4000009mvTvIAI","Maxwell","","Guanajuato","MX","","","","36700","","TOMASA ESTEVES 111 ALTOS NO. 4, CENTRO","","40.9701039","-5.663539699999999","","","D-00000040","01t3u000003ROr1AAG","0ZE7A00000001dsWAA","Walter-ES_MX","Surfox Basic"
"001O4000009mvTvIAI","Maxwell","","Peterborough","CA","","","","K9J 7K6","","3712 Kennedy Rd","","51.253775","-85.3232139","","","D-00000041","01t3u000003ROr1AAG","0ZE7A00000001gNWAQ","Walter-EN_CA","Surfox Basic"
"001O4000009flx3IAA","ACIER AGF INC AE-4429494 LONGUEUIL","","Lyon","CA","","","","69007","","38 rue Banaudon","","44.952398019338","8.405721999999999","","","D-00000042","01t3u000003ROr1AAG","0ZE7A00000001D6WAI","Walter-FR_CA","Surfox Basic"
"001O4000009flx3IAA","ACIER AGF INC AE-4429494 LONGUEUIL","","Recife","BR","","","","50740-640","","Rua Salinópolis 898","","-8.8137173","-36.954107","","","D-00000043","01t3u000003ROr1AAG","0ZE7A00000001gIWAQ","Walter-PT_BR","Surfox Basic"
"001O4000009lLezIAE","Kaman","","Aparecida De Goiânia","BR","","","","74945-500","","Rua Trinta de Março 41","","-15.7050424","-49.36531489999999","","","D-00000044","01t3u000003ROr1AAG","0ZE7A00000001gIWAQ","Walter-PT_BR","Surfox Basic"
"001O4000009lYkZIAU","Zoro","","Goiás","BR","","","","76600-000","","","","-20.7050424","-60.36531489999999","","","D-00000045","01t3u000003ROr1AAG","0ZE7A00000001gIWAQ","Walter-PT_BR","Surfox Basic"
"001O400000APCppIAH","Lethbridge Fasteners & Tools Ltd","","Lethbridge","CA","","","","AB T1H 5K9","","2825 12 Ave N","","49.7155697","-112.800975","","","D-00000047","","0ZE7A00000001i9WAA","Walter-EN_US",""
"001O4000009lXszIAE","Welding OutFitter","","","US","","","","","","","","","","","","D-00000048","","0ZE7A00000001i9WAA","Walter-EN_US",""
"001O4000009lVeLIAU","EMI Supply","","","US","","","","","","","","","","","","D-00000049","","0ZE7A00000001i9WAA","Walter-EN_US",""
"001O4000009lNTxIAM","Fastenal","","","US","","","","","","","","","","","","D-00000050","","0ZE7A00000001i9WAA","Walter-EN_US",""
"001O4000009lYkZIAU","Zoro","","","US","","","","","","","","","","","","D-00000051","","0ZE7A00000001i9WAA","Walter-EN_US",""
"001O4000009lZDGIA2","Home Depot","","","US","","","","","","","","","","","","D-00000052","","0ZE7A00000001i9WAA","Walter-EN_US",""
"001O4000009myBBIAY","Merrimac Industrial","","","US","","","","","","","","","","","","D-00000053","","0ZE7A00000001i9WAA","Walter-EN_US",""
"001O4000009lQoRIAU","Weldfabulous","","","US","","","","","","","","","","","","D-00000054","","0ZE7A00000001i9WAA","Walter-EN_US",""
"001O4000009mwvqIAA","fireball","","","US","","","","","","","","","","","","D-00000055","","0ZE7A00000001i9WAA","Walter-EN_US",""
"001O4000009lLezIAE","Kaman","","","US","","","","","","","","","","","","D-00000056","","0ZE7A00000001i9WAA","Walter-EN_US",""
"001O400000APA6UIAX","Grainger","","","US","","","","","","","","","","","","D-00000057","","0ZE7A00000001i9WAA","Walter-EN_US",""
"001O4000009lWiPIAU","Msc Direct","","","US","","","","","","","","","","","","D-00000058","","0ZE7A00000001i9WAA","Walter-EN_US",""
"001O400000APOMOIA5","Imperial Supplies LLC","","","US","","","","","","","","","","","","D-00000059","","0ZE7A00000001i9WAA","Walter-EN_US",""
"001O400000APCppIAH","Lethbridge Fasteners & Tools Ltd","","","US","","","","","","","","","","","","D-00000060","","0ZE7A00000001gNWAQ","Walter-EN_CA",""
"001O400000AP6hEIAT","Fastening House","","","US","","","","","","","","","","","","D-00000061","","0ZE7A00000001gNWAQ","Walter-EN_CA",""
"001O400000AP5YEIA1","The Sandpaper People","","","US","","","","","","","","","","","","D-00000062","","0ZE7A00000001gNWAQ","Walter-EN_CA",""
"001O400000AP941IAD","Mississauga Hardware Centre Inc.","","","US","","","","","","","","","","","","D-00000063","","0ZE7A00000001gNWAQ","Walter-EN_CA",""
"001O400000AP8O4IAL","TENAQUIP Limited","","","US","","","","","","","","","","","","D-00000064","","0ZE7A00000001gNWAQ","Walter-EN_CA",""
"001O400000APBDvIAP","Vallen","","","US","","","","","","","","","","","","D-00000065","","0ZE7A00000001gNWAQ","Walter-EN_CA",""
"001O400000APB7VIAX","Canada Welding Supply Inc.","","","US","","","","","","","","","","","","D-00000066","","0ZE7A00000001gNWAQ","Walter-EN_CA",""
"001O4000009lNTxIAM","Fastenal","","","US","","","","","","","","","","","","D-00000067","","0ZE7A00000001gNWAQ","Walter-EN_CA",""
"001O400000APIyTIAX","SB Simpson","","","US","","","","","","","","","","","","D-00000068","","0ZE7A00000001gNWAQ","Walter-EN_CA",""
"001O400000AP6CaIAL","ohcanadasupply.ca","","","US","","","","","","","","","","","","D-00000069","","0ZE7A00000001gNWAQ","Walter-EN_CA",""
"001O400000APE24IAH","eGrimesDirect","","","US","","","","","","","","","","","","D-00000070","","0ZE7A00000001gNWAQ","Walter-EN_CA",""
"001O400000AP9EuIAL","Targa Tools","","","US","","","","","","","","","","","","D-00000071","","0ZE7A00000001gNWAQ","Walter-EN_CA",""
"001O400000AP5JoIAL","Gregg Distributors","","","US","","","","","","","","","","","","D-00000072","","0ZE7A00000001gNWAQ","Walter-EN_CA",""
"001O400000APKM2IAP","AIR LIQUIDE","","","US","","","","","","","","","","","","D-00000073","","0ZE7A00000001gNWAQ","Walter-EN_CA",""
"001O400000AP8rTIAT","Construction Fasteners & Tools","","","US","","","","","","","","","","","","D-00000074","","0ZE7A00000001gNWAQ","Walter-EN_CA",""
"","","","","US","","","","","","","","","","","https://www.tenaquip.com/product/drillco-sandd-reduced-shank-drill-bit-3-4-high-speed-steel-3-flute-118-point-1000a148-ual563","D-00000163","01tO400000318tGIAQ","0ZE7A00000001gNWAQ","Walter-EN_CA","3/4,S&D DRILL 1/2"" SHANK - 1000"
"","","","","US","","","","","","","","","","","https://www.tenaquip.com/product/drillco-straight-flute-hand-tap-high-speed-steel-m22x045-thread-28a022ab-uap850","D-00000164","01tO400000318tHIAQ","0ZE7A00000001gNWAQ","Walter-EN_CA","2.2MM-0.45 3FL BOTTOM TAP  - 2800"
"","","","","US","","","","","","","","","","","https://www.acklandsgrainger.com/en/product/p/WLT01E708","D-00000165","01tO400000318tIIAQ","0ZE7A00000001gNWAQ","Walter-EN_CA","SST PRENTICE DRILL SET"
"","","","","US","","","","","","","","","","","https://eGrimesDirect.com/products/walter-01e708","D-00000166","01tO400000318tIIAQ","0ZE7A00000001gNWAQ","Walter-EN_CA","SST PRENTICE DRILL SET"
"","","","","US","","","","","","","","","","","https://greggdistributors.ca/product/wal01e708","D-00000167","01tO400000318tIIAQ","0ZE7A00000001gNWAQ","Walter-EN_CA","SST PRENTICE DRILL SET"
"","","","","US","","","","","","","","","","","https://www.lethfast.ca/products/wal01e708","D-00000168","01tO400000318tIIAQ","0ZE7A00000001gNWAQ","Walter-EN_CA","SST PRENTICE DRILL SET"
"","","","","US","","","","","","","","","","","https://ohcanadasupply.ca/product/wal01e708","D-00000169","01tO400000318tIIAQ","0ZE7A00000001gNWAQ","Walter-EN_CA","SST PRENTICE DRILL SET"
"","","","","US","","","","","","","","","","","https://targatools.com/products/walter-01e708","D-00000170","01tO400000318tIIAQ","0ZE7A00000001gNWAQ","Walter-EN_CA","SST PRENTICE DRILL SET"
"","","","","US","","","","","","","","","","","https://www.tenaquip.com/product/walter-surface-technologies-drill-bit-set-8-pieces-high-speed-steel-01e708-ue136","D-00000171","01tO400000318tIIAQ","0ZE7A00000001gNWAQ","Walter-EN_CA","SST PRENTICE DRILL SET"
"","","","","US","","","","","","","","","","","https://www.acklandsgrainger.com/en/product/p/WLT12E643","D-00000172","01tO400000318tJIAQ","0ZE7A00000001gNWAQ","Walter-EN_CA","10X1 24GR BENCH GR WHEEL"
"","","","","US","","","","","","","","","","","https://eGrimesDirect.com/products/walter-12e643","D-00000173","01tO400000318tJIAQ","0ZE7A00000001gNWAQ","Walter-EN_CA","10X1 24GR BENCH GR WHEEL"
"","","","","US","","","","","","","","","","","https://www.emisupply.com/catalog/product_info.php?products_id=14807&utm_source=walter.com&utm_medium=walterbuynow&utm_term=WAL-12E643","D-00000174","01tO400000318tJIAQ","0ZE7A00000001i9WAA","Walter-EN_US","10X1 24GR BENCH GR WHEEL"
"","","","","US","","","","","","","","","","","https://greggdistributors.ca/product/wal12e643","D-00000175","01tO400000318tJIAQ","0ZE7A00000001gNWAQ","Walter-EN_CA","10X1 24GR BENCH GR WHEEL"
"","","","","US","","","","","","","","","","","https://www.homedepot.com/p/WALTER-SURFACE-TECHNOLOGIES-10-in-x-1-in-Arbor-x-1-in-GR-24-Coarse-Bench-Grinding-Wheels-12E643/305936371","D-00000176","01tO400000318tJIAQ","0ZE7A00000001i9WAA","Walter-EN_US","10X1 24GR BENCH GR WHEEL"
"","","","","US","","","","","","","","","","","https://ec.kamandirect.com/us/catalog/part.jsp?ID=343168","D-00000177","01tO400000318tJIAQ","0ZE7A00000001i9WAA","Walter-EN_US","10X1 24GR BENCH GR WHEEL"
"","","","","US","","","","","","","","","","","https://www.mscdirect.com/product/details/57856593?rItem=57856593","D-00000178","01tO400000318tJIAQ","0ZE7A00000001i9WAA","Walter-EN_US","10X1 24GR BENCH GR WHEEL"
"","","","","US","","","","","","","","","","","https://ohcanadasupply.ca/product/wal12e643","D-00000179","01tO400000318tJIAQ","0ZE7A00000001gNWAQ","Walter-EN_CA","10X1 24GR BENCH GR WHEEL"
"","","","","US","","","","","","","","","","","https://sbsimpson.com/product/walter-12e643-a-o-bench-grinding-wheel-10x1x1-24g-abrasives-25-01306/","D-00000180","01tO400000318tJIAQ","0ZE7A00000001gNWAQ","Walter-EN_CA","10X1 24GR BENCH GR WHEEL"
"","","","","US","","","","","","","","","","","https://www.tenaquip.com/product/walter-surface-technologies-bench-grinding-wheels-10-x-1-1-arbor-1-12e643-ve790","D-00000181","01tO400000318tJIAQ","0ZE7A00000001gNWAQ","Walter-EN_CA","10X1 24GR BENCH GR WHEEL"
"","","","","US","","","","","","","","","","","https://thesandpaperpeople.com/products/walter-12e643","D-00000182","01tO400000318tJIAQ","0ZE7A00000001gNWAQ","Walter-EN_CA","10X1 24GR BENCH GR WHEEL"
"","","","","US","","","","","","","","","","","http://www.weldfabulous.com/p-29197-walter-12e643-10x1x1-general-purpose-bench-grinding-wheels-type-1-24-coarse.aspx","D-00000183","01tO400000318tJIAQ","0ZE7A00000001i9WAA","Walter-EN_US","10X1 24GR BENCH GR WHEEL"
"","","","","US","","","","","","","","","","","https://www.weldingoutfitter.com/products/walter-12e643-10-x-1-x-1-coarse-24-grit-bench-grinding-wheel-1-wheel","D-00000184","01tO400000318tJIAQ","0ZE7A00000001i9WAA","Walter-EN_US","10X1 24GR BENCH GR WHEEL"
"","","","","US","","","","","","","","","","","https://www.zoro.com//i/G4371698","D-00000185","01tO400000318tJIAQ","0ZE7A00000001i9WAA","Walter-EN_US","10X1 24GR BENCH GR WHEEL"
"","","","","US","","","","","","","","","","","https://www.acklandsgrainger.com/en/product/p/WLT01A005","D-00000186","01tO400000318tLIAQ","0ZE7A00000001gNWAQ","Walter-EN_CA","5/64 SST JOBBER QCK SHANK"
"","","","","US","","","","","","","","","","","https://www.airliquide.ca/sst-118-fractional-jobber/product/W00000899?skuRepositoryId=A0231909","D-00000187","01tO400000318tLIAQ","0ZE7A00000001gNWAQ","Walter-EN_CA","5/64 SST JOBBER QCK SHANK"
"","","","","US","","","","","","","","","","","https://canadaweldingsupply.ca/products/walter-sst-118-deg-jobbers-fractional-drill-bits?variant=42524435939501","D-00000188","01tO400000318tLIAQ","0ZE7A00000001gNWAQ","Walter-EN_CA","5/64 SST JOBBER QCK SHANK"
"","","","","US","","","","","","","","","","","https://cf-t.com/walter-01-a-005-jobber-drill-bit-5-64-sst-qs-bit?utm_source=feeds&utm_medium=referral&utm_campaign=Walter&utm_content=WLT01A005","D-00000189","01tO400000318tLIAQ","0ZE7A00000001gNWAQ","Walter-EN_CA","5/64 SST JOBBER QCK SHANK"
"","","","","US","","","","","","","","","","","https://eGrimesDirect.com/products/walter-01a005","D-00000190","01tO400000318tLIAQ","0ZE7A00000001gNWAQ","Walter-EN_CA","5/64 SST JOBBER QCK SHANK"
"","","","","US","","","","","","","","","","","https://www.fasteninghouse.com/product-details/manufacture/5-64-sst-jobber-qck-shank/","D-00000191","01tO400000318tLIAQ","0ZE7A00000001gNWAQ","Walter-EN_CA","5/64 SST JOBBER QCK SHANK"
"","","","","US","","","","","","","","","","","https://greggdistributors.ca/product/wal01a005","D-00000192","01tO400000318tLIAQ","0ZE7A00000001gNWAQ","Walter-EN_CA","5/64 SST JOBBER QCK SHANK"
"","","","","US","","","","","","","","","","","https://www.lethfast.ca/products/wal_sst_quick_shank","D-00000193","01tO400000318tLIAQ","0ZE7A00000001gNWAQ","Walter-EN_CA","5/64 SST JOBBER QCK SHANK"
"","","","","US","","","","","","","","","","","https://ohcanadasupply.ca/product/wal01a005","D-00000194","01tO400000318tLIAQ","0ZE7A00000001gNWAQ","Walter-EN_CA","5/64 SST JOBBER QCK SHANK"
"","","","","US","","","","","","","","","","","https://sbsimpson.com/product/walter-01a005-5-64-sst-118deg-jobber-drill-bit-cutting-tools-20-03527/","D-00000195","01tO400000318tLIAQ","0ZE7A00000001gNWAQ","Walter-EN_CA","5/64 SST JOBBER QCK SHANK"
"","","","","US","","","","","","","","","","","https://targatools.com/products/walter-01a005","D-00000196","01tO400000318tLIAQ","0ZE7A00000001gNWAQ","Walter-EN_CA","5/64 SST JOBBER QCK SHANK"
"","","","","US","","","","","","","","","","","https://www.tenaquip.com/product/walter-surface-technologies-sst-jobbers-length-drill-bit-01a005-tco074","D-00000197","01tO400000318tLIAQ","0ZE7A00000001gNWAQ","Walter-EN_CA","5/64 SST JOBBER QCK SHANK"
"","","","","US","","","","","","","","","","","https://www.vallen.ca/Products/Detail/V0FMIDAxLUEtMDA1","D-00000198","01tO400000318tLIAQ","0ZE7A00000001gNWAQ","Walter-EN_CA","5/64 SST JOBBER QCK SHANK"
"","","","","US","","","","","","","","","","","https://www.weldingoutfitter.com/products/walter-01a005-5-64-fractional-sst-118-jobber-quick-shank-drill-bit","D-00000199","01tO400000318tLIAQ","0ZE7A00000001i9WAA","Walter-EN_US","5/64 SST JOBBER QCK SHANK"
"","","","","US","","","","","","","","","","","https://www.zoro.com//i/G4377891","D-00000200","01tO400000318tLIAQ","0ZE7A00000001i9WAA","Walter-EN_US","5/64 SST JOBBER QCK SHANK"
"","","","","US","","","","","","","","","","","https://www.tenaquip.com/product/drillco-sandd-reduced-shank-drill-bit-3-4-high-speed-steel-3-flute-118-point-1000a148-ual563","D-00000125","01tO400000318tGIAQ","0ZE7A00000001gNWAQ","Walter-EN_CA","3/4,S&D DRILL 1/2"" SHANK - 1000"
"","","","","US","","","","","","","","","","","https://www.tenaquip.com/product/drillco-straight-flute-hand-tap-high-speed-steel-m22x045-thread-28a022ab-uap850","D-00000126","01tO400000318tHIAQ","0ZE7A00000001gNWAQ","Walter-EN_CA","2.2MM-0.45 3FL BOTTOM TAP  - 2800"
"","","","","US","","","","","","","","","","","https://www.acklandsgrainger.com/en/product/p/WLT01E708","D-00000127","01tO400000318tIIAQ","0ZE7A00000001gNWAQ","Walter-EN_CA","SST PRENTICE DRILL SET"
"","","","","US","","","","","","","","","","","https://eGrimesDirect.com/products/walter-01e708","D-00000128","01tO400000318tIIAQ","0ZE7A00000001gNWAQ","Walter-EN_CA","SST PRENTICE DRILL SET"
"","","","","US","","","","","","","","","","","https://greggdistributors.ca/product/wal01e708","D-00000129","01tO400000318tIIAQ","0ZE7A00000001gNWAQ","Walter-EN_CA","SST PRENTICE DRILL SET"
"","","","","US","","","","","","","","","","","https://www.lethfast.ca/products/wal01e708","D-00000130","01tO400000318tIIAQ","0ZE7A00000001gNWAQ","Walter-EN_CA","SST PRENTICE DRILL SET"
"","","","","US","","","","","","","","","","","https://ohcanadasupply.ca/product/wal01e708","D-00000131","01tO400000318tIIAQ","0ZE7A00000001gNWAQ","Walter-EN_CA","SST PRENTICE DRILL SET"
"","","","","US","","","","","","","","","","","https://targatools.com/products/walter-01e708","D-00000132","01tO400000318tIIAQ","0ZE7A00000001gNWAQ","Walter-EN_CA","SST PRENTICE DRILL SET"
"","","","","US","","","","","","","","","","","https://www.tenaquip.com/product/walter-surface-technologies-drill-bit-set-8-pieces-high-speed-steel-01e708-ue136","D-00000133","01tO400000318tIIAQ","0ZE7A00000001gNWAQ","Walter-EN_CA","SST PRENTICE DRILL SET"
"","","","","US","","","","","","","","","","","https://www.acklandsgrainger.com/en/product/p/WLT12E643","D-00000134","01tO400000318tJIAQ","0ZE7A00000001gNWAQ","Walter-EN_CA","10X1 24GR BENCH GR WHEEL"
"","","","","US","","","","","","","","","","","https://eGrimesDirect.com/products/walter-12e643","D-00000135","01tO400000318tJIAQ","0ZE7A00000001gNWAQ","Walter-EN_CA","10X1 24GR BENCH GR WHEEL"
"","","","","US","","","","","","","","","","","https://www.emisupply.com/catalog/product_info.php?products_id=14807&utm_source=walter.com&utm_medium=walterbuynow&utm_term=WAL-12E643","D-00000136","01tO400000318tJIAQ","0ZE7A00000001i9WAA","Walter-EN_US","10X1 24GR BENCH GR WHEEL"
"","","","","US","","","","","","","","","","","https://greggdistributors.ca/product/wal12e643","D-00000137","01tO400000318tJIAQ","0ZE7A00000001gNWAQ","Walter-EN_CA","10X1 24GR BENCH GR WHEEL"
"","","","","US","","","","","","","","","","","https://www.homedepot.com/p/WALTER-SURFACE-TECHNOLOGIES-10-in-x-1-in-Arbor-x-1-in-GR-24-Coarse-Bench-Grinding-Wheels-12E643/305936371","D-00000138","01tO400000318tJIAQ","0ZE7A00000001i9WAA","Walter-EN_US","10X1 24GR BENCH GR WHEEL"
"","","","","US","","","","","","","","","","","https://ec.kamandirect.com/us/catalog/part.jsp?ID=343168","D-00000139","01tO400000318tJIAQ","0ZE7A00000001i9WAA","Walter-EN_US","10X1 24GR BENCH GR WHEEL"
"","","","","US","","","","","","","","","","","https://www.mscdirect.com/product/details/57856593?rItem=57856593","D-00000140","01tO400000318tJIAQ","0ZE7A00000001i9WAA","Walter-EN_US","10X1 24GR BENCH GR WHEEL"
"","","","","US","","","","","","","","","","","https://ohcanadasupply.ca/product/wal12e643","D-00000141","01tO400000318tJIAQ","0ZE7A00000001gNWAQ","Walter-EN_CA","10X1 24GR BENCH GR WHEEL"
"","","","","US","","","","","","","","","","","https://sbsimpson.com/product/walter-12e643-a-o-bench-grinding-wheel-10x1x1-24g-abrasives-25-01306/","D-00000142","01tO400000318tJIAQ","0ZE7A00000001gNWAQ","Walter-EN_CA","10X1 24GR BENCH GR WHEEL"
"","","","","US","","","","","","","","","","","https://www.tenaquip.com/product/walter-surface-technologies-bench-grinding-wheels-10-x-1-1-arbor-1-12e643-ve790","D-00000143","01tO400000318tJIAQ","0ZE7A00000001gNWAQ","Walter-EN_CA","10X1 24GR BENCH GR WHEEL"
"","","","","US","","","","","","","","","","","https://thesandpaperpeople.com/products/walter-12e643","D-00000144","01tO400000318tJIAQ","0ZE7A00000001gNWAQ","Walter-EN_CA","10X1 24GR BENCH GR WHEEL"
"","","","","US","","","","","","","","","","","http://www.weldfabulous.com/p-29197-walter-12e643-10x1x1-general-purpose-bench-grinding-wheels-type-1-24-coarse.aspx","D-00000145","01tO400000318tJIAQ","0ZE7A00000001i9WAA","Walter-EN_US","10X1 24GR BENCH GR WHEEL"
"","","","","US","","","","","","","","","","","https://www.weldingoutfitter.com/products/walter-12e643-10-x-1-x-1-coarse-24-grit-bench-grinding-wheel-1-wheel","D-00000146","01tO400000318tJIAQ","0ZE7A00000001i9WAA","Walter-EN_US","10X1 24GR BENCH GR WHEEL"
"","","","","US","","","","","","","","","","","https://www.zoro.com//i/G4371698","D-00000147","01tO400000318tJIAQ","0ZE7A00000001i9WAA","Walter-EN_US","10X1 24GR BENCH GR WHEEL"
"","","","","US","","","","","","","","","","","https://www.acklandsgrainger.com/en/product/p/WLT01A005","D-00000148","01tO400000318tLIAQ","0ZE7A00000001gNWAQ","Walter-EN_CA","5/64 SST JOBBER QCK SHANK"
"","","","","US","","","","","","","","","","","https://www.airliquide.ca/sst-118-fractional-jobber/product/W00000899?skuRepositoryId=A0231909","D-00000149","01tO400000318tLIAQ","0ZE7A00000001gNWAQ","Walter-EN_CA","5/64 SST JOBBER QCK SHANK"
"","","","","US","","","","","","","","","","","https://canadaweldingsupply.ca/products/walter-sst-118-deg-jobbers-fractional-drill-bits?variant=42524435939501","D-00000150","01tO400000318tLIAQ","0ZE7A00000001gNWAQ","Walter-EN_CA","5/64 SST JOBBER QCK SHANK"
"","","","","US","","","","","","","","","","","https://cf-t.com/walter-01-a-005-jobber-drill-bit-5-64-sst-qs-bit?utm_source=feeds&utm_medium=referral&utm_campaign=Walter&utm_content=WLT01A005","D-00000151","01tO400000318tLIAQ","0ZE7A00000001gNWAQ","Walter-EN_CA","5/64 SST JOBBER QCK SHANK"
"","","","","US","","","","","","","","","","","https://eGrimesDirect.com/products/walter-01a005","D-00000152","01tO400000318tLIAQ","0ZE7A00000001gNWAQ","Walter-EN_CA","5/64 SST JOBBER QCK SHANK"
"","","","","US","","","","","","","","","","","https://www.fasteninghouse.com/product-details/manufacture/5-64-sst-jobber-qck-shank/","D-00000153","01tO400000318tLIAQ","0ZE7A00000001gNWAQ","Walter-EN_CA","5/64 SST JOBBER QCK SHANK"
"","","","","US","","","","","","","","","","","https://greggdistributors.ca/product/wal01a005","D-00000154","01tO400000318tLIAQ","0ZE7A00000001gNWAQ","Walter-EN_CA","5/64 SST JOBBER QCK SHANK"
"","","","","US","","","","","","","","","","","https://www.lethfast.ca/products/wal_sst_quick_shank","D-00000155","01tO400000318tLIAQ","0ZE7A00000001gNWAQ","Walter-EN_CA","5/64 SST JOBBER QCK SHANK"
"","","","","US","","","","","","","","","","","https://ohcanadasupply.ca/product/wal01a005","D-00000156","01tO400000318tLIAQ","0ZE7A00000001gNWAQ","Walter-EN_CA","5/64 SST JOBBER QCK SHANK"
"","","","","US","","","","","","","","","","","https://sbsimpson.com/product/walter-01a005-5-64-sst-118deg-jobber-drill-bit-cutting-tools-20-03527/","D-00000157","01tO400000318tLIAQ","0ZE7A00000001gNWAQ","Walter-EN_CA","5/64 SST JOBBER QCK SHANK"
"","","","","US","","","","","","","","","","","https://targatools.com/products/walter-01a005","D-00000158","01tO400000318tLIAQ","0ZE7A00000001gNWAQ","Walter-EN_CA","5/64 SST JOBBER QCK SHANK"
"","","","","US","","","","","","","","","","","https://www.tenaquip.com/product/walter-surface-technologies-sst-jobbers-length-drill-bit-01a005-tco074","D-00000159","01tO400000318tLIAQ","0ZE7A00000001gNWAQ","Walter-EN_CA","5/64 SST JOBBER QCK SHANK"
"","","","","US","","","","","","","","","","","https://www.vallen.ca/Products/Detail/V0FMIDAxLUEtMDA1","D-00000160","01tO400000318tLIAQ","0ZE7A00000001gNWAQ","Walter-EN_CA","5/64 SST JOBBER QCK SHANK"
"","","","","US","","","","","","","","","","","https://www.weldingoutfitter.com/products/walter-01a005-5-64-fractional-sst-118-jobber-quick-shank-drill-bit","D-00000161","01tO400000318tLIAQ","0ZE7A00000001i9WAA","Walter-EN_US","5/64 SST JOBBER QCK SHANK"
"","","","","US","","","","","","","","","","","https://www.zoro.com//i/G4377891","D-00000162","01tO400000318tLIAQ","0ZE7A00000001i9WAA","Walter-EN_US","5/64 SST JOBBER QCK SHANK"
"","","","","US","","","","","","","","","","","https://www.tenaquip.com/product/drillco-sandd-reduced-shank-drill-bit-3-4-high-speed-steel-3-flute-118-point-1000a148-ual563","D-00000201","01tO400000318tGIAQ","0ZE7A00000001gNWAQ","Walter-EN_CA","3/4,S&D DRILL 1/2"" SHANK - 1000"
"","","","","US","","","","","","","","","","","https://www.tenaquip.com/product/drillco-straight-flute-hand-tap-high-speed-steel-m22x045-thread-28a022ab-uap850","D-00000202","01tO400000318tHIAQ","0ZE7A00000001gNWAQ","Walter-EN_CA","2.2MM-0.45 3FL BOTTOM TAP  - 2800"
"","","","","US","","","","","","","","","","","https://www.acklandsgrainger.com/en/product/p/WLT01E708","D-00000203","01tO400000318tIIAQ","0ZE7A00000001gNWAQ","Walter-EN_CA","SST PRENTICE DRILL SET"
"","","","","US","","","","","","","","","","","https://eGrimesDirect.com/products/walter-01e708","D-00000204","01tO400000318tIIAQ","0ZE7A00000001gNWAQ","Walter-EN_CA","SST PRENTICE DRILL SET"
"","","","","US","","","","","","","","","","","https://greggdistributors.ca/product/wal01e708","D-00000205","01tO400000318tIIAQ","0ZE7A00000001gNWAQ","Walter-EN_CA","SST PRENTICE DRILL SET"
"","","","","US","","","","","","","","","","","https://www.lethfast.ca/products/wal01e708","D-00000206","01tO400000318tIIAQ","0ZE7A00000001gNWAQ","Walter-EN_CA","SST PRENTICE DRILL SET"
"","","","","US","","","","","","","","","","","https://ohcanadasupply.ca/product/wal01e708","D-00000207","01tO400000318tIIAQ","0ZE7A00000001gNWAQ","Walter-EN_CA","SST PRENTICE DRILL SET"
"","","","","US","","","","","","","","","","","https://targatools.com/products/walter-01e708","D-00000208","01tO400000318tIIAQ","0ZE7A00000001gNWAQ","Walter-EN_CA","SST PRENTICE DRILL SET"
"","","","","US","","","","","","","","","","","https://www.tenaquip.com/product/walter-surface-technologies-drill-bit-set-8-pieces-high-speed-steel-01e708-ue136","D-00000209","01tO400000318tIIAQ","0ZE7A00000001gNWAQ","Walter-EN_CA","SST PRENTICE DRILL SET"
"","","","","US","","","","","","","","","","","https://www.acklandsgrainger.com/en/product/p/WLT12E643","D-00000210","01tO400000318tJIAQ","0ZE7A00000001gNWAQ","Walter-EN_CA","10X1 24GR BENCH GR WHEEL"
"","","","","US","","","","","","","","","","","https://eGrimesDirect.com/products/walter-12e643","D-00000211","01tO400000318tJIAQ","0ZE7A00000001gNWAQ","Walter-EN_CA","10X1 24GR BENCH GR WHEEL"
"","","","","US","","","","","","","","","","","https://www.emisupply.com/catalog/product_info.php?products_id=14807&utm_source=walter.com&utm_medium=walterbuynow&utm_term=WAL-12E643","D-00000212","01tO400000318tJIAQ","0ZE7A00000001i9WAA","Walter-EN_US","10X1 24GR BENCH GR WHEEL"
"","","","","US","","","","","","","","","","","https://greggdistributors.ca/product/wal12e643","D-00000213","01tO400000318tJIAQ","0ZE7A00000001gNWAQ","Walter-EN_CA","10X1 24GR BENCH GR WHEEL"
"","","","","US","","","","","","","","","","","https://www.homedepot.com/p/WALTER-SURFACE-TECHNOLOGIES-10-in-x-1-in-Arbor-x-1-in-GR-24-Coarse-Bench-Grinding-Wheels-12E643/305936371","D-00000214","01tO400000318tJIAQ","0ZE7A00000001i9WAA","Walter-EN_US","10X1 24GR BENCH GR WHEEL"
"","","","","US","","","","","","","","","","","https://ec.kamandirect.com/us/catalog/part.jsp?ID=343168","D-00000215","01tO400000318tJIAQ","0ZE7A00000001i9WAA","Walter-EN_US","10X1 24GR BENCH GR WHEEL"
"","","","","US","","","","","","","","","","","https://www.mscdirect.com/product/details/57856593?rItem=57856593","D-00000216","01tO400000318tJIAQ","0ZE7A00000001i9WAA","Walter-EN_US","10X1 24GR BENCH GR WHEEL"
"","","","","US","","","","","","","","","","","https://ohcanadasupply.ca/product/wal12e643","D-00000217","01tO400000318tJIAQ","0ZE7A00000001gNWAQ","Walter-EN_CA","10X1 24GR BENCH GR WHEEL"
"","","","","US","","","","","","","","","","","https://sbsimpson.com/product/walter-12e643-a-o-bench-grinding-wheel-10x1x1-24g-abrasives-25-01306/","D-00000218","01tO400000318tJIAQ","0ZE7A00000001gNWAQ","Walter-EN_CA","10X1 24GR BENCH GR WHEEL"
"","","","","US","","","","","","","","","","","https://www.tenaquip.com/product/walter-surface-technologies-bench-grinding-wheels-10-x-1-1-arbor-1-12e643-ve790","D-00000219","01tO400000318tJIAQ","0ZE7A00000001gNWAQ","Walter-EN_CA","10X1 24GR BENCH GR WHEEL"
"","","","","US","","","","","","","","","","","https://thesandpaperpeople.com/products/walter-12e643","D-00000220","01tO400000318tJIAQ","0ZE7A00000001gNWAQ","Walter-EN_CA","10X1 24GR BENCH GR WHEEL"
"","","","","US","","","","","","","","","","","http://www.weldfabulous.com/p-29197-walter-12e643-10x1x1-general-purpose-bench-grinding-wheels-type-1-24-coarse.aspx","D-00000221","01tO400000318tJIAQ","0ZE7A00000001i9WAA","Walter-EN_US","10X1 24GR BENCH GR WHEEL"
"","","","","US","","","","","","","","","","","https://www.weldingoutfitter.com/products/walter-12e643-10-x-1-x-1-coarse-24-grit-bench-grinding-wheel-1-wheel","D-00000222","01tO400000318tJIAQ","0ZE7A00000001i9WAA","Walter-EN_US","10X1 24GR BENCH GR WHEEL"
"","","","","US","","","","","","","","","","","https://www.zoro.com//i/G4371698","D-00000223","01tO400000318tJIAQ","0ZE7A00000001i9WAA","Walter-EN_US","10X1 24GR BENCH GR WHEEL"
"","","","","US","","","","","","","","","","","https://www.acklandsgrainger.com/en/product/p/WLT01A005","D-00000224","01tO400000318tLIAQ","0ZE7A00000001gNWAQ","Walter-EN_CA","5/64 SST JOBBER QCK SHANK"
"","","","","US","","","","","","","","","","","https://www.airliquide.ca/sst-118-fractional-jobber/product/W00000899?skuRepositoryId=A0231909","D-00000225","01tO400000318tLIAQ","0ZE7A00000001gNWAQ","Walter-EN_CA","5/64 SST JOBBER QCK SHANK"
"","","","","US","","","","","","","","","","","https://canadaweldingsupply.ca/products/walter-sst-118-deg-jobbers-fractional-drill-bits?variant=42524435939501","D-00000226","01tO400000318tLIAQ","0ZE7A00000001gNWAQ","Walter-EN_CA","5/64 SST JOBBER QCK SHANK"
"","","","","US","","","","","","","","","","","https://cf-t.com/walter-01-a-005-jobber-drill-bit-5-64-sst-qs-bit?utm_source=feeds&utm_medium=referral&utm_campaign=Walter&utm_content=WLT01A005","D-00000227","01tO400000318tLIAQ","0ZE7A00000001gNWAQ","Walter-EN_CA","5/64 SST JOBBER QCK SHANK"
"","","","","US","","","","","","","","","","","https://eGrimesDirect.com/products/walter-01a005","D-00000228","01tO400000318tLIAQ","0ZE7A00000001gNWAQ","Walter-EN_CA","5/64 SST JOBBER QCK SHANK"
"","","","","US","","","","","","","","","","","https://www.fasteninghouse.com/product-details/manufacture/5-64-sst-jobber-qck-shank/","D-00000229","01tO400000318tLIAQ","0ZE7A00000001gNWAQ","Walter-EN_CA","5/64 SST JOBBER QCK SHANK"
"","","","","US","","","","","","","","","","","https://greggdistributors.ca/product/wal01a005","D-00000230","01tO400000318tLIAQ","0ZE7A00000001gNWAQ","Walter-EN_CA","5/64 SST JOBBER QCK SHANK"
"","","","","US","","","","","","","","","","","https://www.lethfast.ca/products/wal_sst_quick_shank","D-00000231","01tO400000318tLIAQ","0ZE7A00000001gNWAQ","Walter-EN_CA","5/64 SST JOBBER QCK SHANK"
"","","","","US","","","","","","","","","","","https://ohcanadasupply.ca/product/wal01a005","D-00000232","01tO400000318tLIAQ","0ZE7A00000001gNWAQ","Walter-EN_CA","5/64 SST JOBBER QCK SHANK"
"","","","","US","","","","","","","","","","","https://sbsimpson.com/product/walter-01a005-5-64-sst-118deg-jobber-drill-bit-cutting-tools-20-03527/","D-00000233","01tO400000318tLIAQ","0ZE7A00000001gNWAQ","Walter-EN_CA","5/64 SST JOBBER QCK SHANK"
"","","","","US","","","","","","","","","","","https://targatools.com/products/walter-01a005","D-00000234","01tO400000318tLIAQ","0ZE7A00000001gNWAQ","Walter-EN_CA","5/64 SST JOBBER QCK SHANK"
"","","","","US","","","","","","","","","","","https://www.tenaquip.com/product/walter-surface-technologies-sst-jobbers-length-drill-bit-01a005-tco074","D-00000235","01tO400000318tLIAQ","0ZE7A00000001gNWAQ","Walter-EN_CA","5/64 SST JOBBER QCK SHANK"
"","","","","US","","","","","","","","","","","https://www.vallen.ca/Products/Detail/V0FMIDAxLUEtMDA1","D-00000236","01tO400000318tLIAQ","0ZE7A00000001gNWAQ","Walter-EN_CA","5/64 SST JOBBER QCK SHANK"
"","","","","US","","","","","","","","","","","https://www.weldingoutfitter.com/products/walter-01a005-5-64-fractional-sst-118-jobber-quick-shank-drill-bit","D-00000237","01tO400000318tLIAQ","0ZE7A00000001i9WAA","Walter-EN_US","5/64 SST JOBBER QCK SHANK"
"","","","","US","","","","","","","","","","","https://www.zoro.com//i/G4377891","D-00000238","01tO400000318tLIAQ","0ZE7A00000001i9WAA","Walter-EN_US","5/64 SST JOBBER QCK SHANK"
"","","","","US","","","","","","","","","","","http://www.maxprod.com/products/DRC-91N140.asp","D-00000239","01tO4000002yXRUIA2","0ZE7A00000001i9WAA","Walter-EN_US","5/8 1"" DOC ANNULAR CUTTER NITRO -9100N"
"","","","","US","","","","","","","","","","","https://www.tenaquip.com/product/drillco-single-cut-ballnose-cylinder-burr-7c148bsc-uar732","D-00000240","01tO4000002yXRVIA2","0ZE7A00000001gNWAQ","Walter-EN_CA","SC-7,SOLID CARBIDE BUR SINGLE CUT -7000C"
"","","","","US","","","","","","","","","","","http://www.maxprod.com/products/DRC-7C148BSC.asp","D-00000241","01tO4000002yXRVIA2","0ZE7A00000001i9WAA","Walter-EN_US","SC-7,SOLID CARBIDE BUR SINGLE CUT -7000C"
"","","","","US","","","","","","","","","","","https://www.tenaquip.com/product/drillco-hardened-extension-sleeve-144e013h-uap184","D-00000242","01tO4000002yXRXIA2","0ZE7A00000001gNWAQ","Walter-EN_CA","#1-#3,HARDENED EXTENSION SLEEVE - 1440"
"","","","","US","","","","","","","","","","","http://www.maxprod.com/products/DRC-144E013H.asp","D-00000243","01tO4000002yXRXIA2","0ZE7A00000001i9WAA","Walter-EN_US","#1-#3,HARDENED EXTENSION SLEEVE - 1440"
"","","","","US","","","","","","","","","","","https://www.weldingoutfitter.com/products/walter-09d102-2-24-grit-spinlock-aluminum-oxide-resin-fiber-flap-disc-25-pack","D-00000244","01tO4000002yXRYIA2","0ZE7A00000001i9WAA","Walter-EN_US","SPINLOCK A/O RESIN FIBER DISC, 2"" G24"
"","","","","US","","","","","","","","","","","http://www.maxprod.com/products/WAL-53G098.asp","D-00000245","01tO4000002yXRYIA2","0ZE7A00000001i9WAA","Walter-EN_US","SPINLOCK A/O RESIN FIBER DISC, 2"" G24"
"","","","","US","","","","","","","","","","","http://www.maxprod.com/products/WAL-48R544.asp","D-00000246","01tO4000002yXRaIAM","0ZE7A00000001i9WAA","Walter-EN_US","CABLE COMPLETE FOR MICROSWITCH"
"","","","","US","","","","","","","","","","","https://www.tenaquip.com/product/drillco-heavy-duty-jobber-drill-bit-480a047-uam674","D-00000247","01tO40000032CZmIAM","0ZE7A00000001gNWAQ","Walter-EN_CA","#47,HD JOBBER DRILL  - 480"
"","","","","US","","","","","","","","","","","http://www.maxprod.com/products/DRC-480A047.asp","D-00000248","01tO40000032CZmIAM","0ZE7A00000001i9WAA","Walter-EN_US","#47,HD JOBBER DRILL  - 480"
"","","","","US","","","","","","","","","","","https://sbsimpson.com/product/walter-53k114-surface-disinfectant-70-alcohol-946ml-chemicals-cleaners-and-coatings-90-02455/","D-00000249","01tO40000032CZoIAM","0ZE7A00000001gNWAQ","Walter-EN_CA","WLT CAN SURFACE DISINFECT. 70%ALC 946ML"
"","","","","US","","","","","","","","","","","http://www.maxprod.com/products/DRC-72A114C.asp","D-00000250","01tO400000318tEIAQ","0ZE7A00000001i9WAA","Walter-EN_US","7/32, SOL CARB 2 FL END MIL SGL END 7200"
"","","","","US","","","","","","","","","","","http://www.maxprod.com/products/DRC-1400A218.asp","D-00000251","01tO400000318tFIAQ","0ZE7A00000001i9WAA","Walter-EN_US","1-9/32,TAPER SHANK DRILL #4 M.T. - 1400"
"","","","","US","","","","","","","","","","","https://www.tenaquip.com/product/drillco-sandd-reduced-shank-drill-bit-3-4-high-speed-steel-3-flute-118-point-1000a148-ual563","D-00000252","01tO400000318tGIAQ","0ZE7A00000001gNWAQ","Walter-EN_CA","3/4,S&D DRILL 1/2"" SHANK - 1000"
"","","","","US","","","","","","","","","","","http://www.maxprod.com/products/DRC-1000A148.asp","D-00000253","01tO400000318tGIAQ","0ZE7A00000001i9WAA","Walter-EN_US","3/4,S&D DRILL 1/2"" SHANK - 1000"
"","","","","US","","","","","","","","","","","https://www.tenaquip.com/product/drillco-straight-flute-hand-tap-high-speed-steel-m22x045-thread-28a022ab-uap850","D-00000254","01tO400000318tHIAQ","0ZE7A00000001gNWAQ","Walter-EN_CA","2.2MM-0.45 3FL BOTTOM TAP  - 2800"
"","","","","US","","","","","","","","","","","http://www.maxprod.com/products/DRC-28A022AB.asp","D-00000255","01tO400000318tHIAQ","0ZE7A00000001i9WAA","Walter-EN_US","2.2MM-0.45 3FL BOTTOM TAP  - 2800"
"","","","","US","","","","","","","","","","","https://www.lethfast.ca/products/wal01e708","D-00000256","01tO400000318tIIAQ","0ZE7A00000001gNWAQ","Walter-EN_CA","SST PRENTICE DRILL SET"
"","","","","US","","","","","","","","","","","https://www.acklandsgrainger.com/en/product/p/WLT01E708","D-00000257","01tO400000318tIIAQ","0ZE7A00000001gNWAQ","Walter-EN_CA","SST PRENTICE DRILL SET"
"","","","","US","","","","","","","","","","","https://www.tenaquip.com/product/walter-surface-technologies-drill-bit-set-8-pieces-high-speed-steel-01e708-ue136","D-00000258","01tO400000318tIIAQ","0ZE7A00000001gNWAQ","Walter-EN_CA","SST PRENTICE DRILL SET"
"","","","","US","","","","","","","","","","","https://eGrimesDirect.com/products/walter-01e708","D-00000259","01tO400000318tIIAQ","0ZE7A00000001gNWAQ","Walter-EN_CA","SST PRENTICE DRILL SET"
"","","","","US","","","","","","","","","","","https://targatools.com/products/walter-01e708","D-00000260","01tO400000318tIIAQ","0ZE7A00000001gNWAQ","Walter-EN_CA","SST PRENTICE DRILL SET"
"","","","","US","","","","","","","","","","","https://greggdistributors.ca/product/wal01e708","D-00000261","01tO400000318tIIAQ","0ZE7A00000001gNWAQ","Walter-EN_CA","SST PRENTICE DRILL SET"
"","","","","US","","","","","","","","","","","https://ohcanadasupply.ca/product/wal01e708","D-00000262","01tO400000318tIIAQ","0ZE7A00000001gNWAQ","Walter-EN_CA","SST PRENTICE DRILL SET"
"","","","","US","","","","","","","","","","","http://www.maxprod.com/products/WAL-15F108.asp","D-00000263","01tO400000318tIIAQ","0ZE7A00000001i9WAA","Walter-EN_US","SST PRENTICE DRILL SET"
"","","","","US","","","","","","","","","","","http://www.maxprod.com/products/DRC-91N140.asp","D-00000264","01tO4000002yXRUIA2","0ZE7A00000001i9WAA","Walter-EN_US","5/8 1"" DOC ANNULAR CUTTER NITRO -9100N"
"","","","","US","","","","","","","","","","","https://www.tenaquip.com/product/drillco-single-cut-ballnose-cylinder-burr-7c148bsc-uar732","D-00000265","01tO4000002yXRVIA2","0ZE7A00000001gNWAQ","Walter-EN_CA","SC-7,SOLID CARBIDE BUR SINGLE CUT -7000C"
"","","","","US","","","","","","","","","","","http://www.maxprod.com/products/DRC-7C148BSC.asp","D-00000266","01tO4000002yXRVIA2","0ZE7A00000001i9WAA","Walter-EN_US","SC-7,SOLID CARBIDE BUR SINGLE CUT -7000C"
"","","","","US","","","","","","","","","","","https://www.tenaquip.com/product/drillco-hardened-extension-sleeve-144e013h-uap184","D-00000267","01tO4000002yXRXIA2","0ZE7A00000001gNWAQ","Walter-EN_CA","#1-#3,HARDENED EXTENSION SLEEVE - 1440"
"","","","","US","","","","","","","","","","","http://www.maxprod.com/products/DRC-144E013H.asp","D-00000268","01tO4000002yXRXIA2","0ZE7A00000001i9WAA","Walter-EN_US","#1-#3,HARDENED EXTENSION SLEEVE - 1440"
"","","","","US","","","","","","","","","","","https://www.weldingoutfitter.com/products/walter-09d102-2-24-grit-spinlock-aluminum-oxide-resin-fiber-flap-disc-25-pack","D-00000269","01tO4000002yXRYIA2","0ZE7A00000001i9WAA","Walter-EN_US","SPINLOCK A/O RESIN FIBER DISC, 2"" G24"
"","","","","US","","","","","","","","","","","http://www.maxprod.com/products/WAL-53G098.asp","D-00000270","01tO4000002yXRYIA2","0ZE7A00000001i9WAA","Walter-EN_US","SPINLOCK A/O RESIN FIBER DISC, 2"" G24"
"","","","","US","","","","","","","","","","","http://www.maxprod.com/products/WAL-48R544.asp","D-00000271","01tO4000002yXRaIAM","0ZE7A00000001i9WAA","Walter-EN_US","CABLE COMPLETE FOR MICROSWITCH"
"","","","","US","","","","","","","","","","","https://www.tenaquip.com/product/drillco-heavy-duty-jobber-drill-bit-480a047-uam674","D-00000272","01tO40000032CZmIAM","0ZE7A00000001gNWAQ","Walter-EN_CA","#47,HD JOBBER DRILL  - 480"
"","","","","US","","","","","","","","","","","http://www.maxprod.com/products/DRC-480A047.asp","D-00000273","01tO40000032CZmIAM","0ZE7A00000001i9WAA","Walter-EN_US","#47,HD JOBBER DRILL  - 480"
"","","","","US","","","","","","","","","","","https://sbsimpson.com/product/walter-53k114-surface-disinfectant-70-alcohol-946ml-chemicals-cleaners-and-coatings-90-02455/","D-00000274","01tO40000032CZoIAM","0ZE7A00000001gNWAQ","Walter-EN_CA","WLT CAN SURFACE DISINFECT. 70%ALC 946ML"
"","","","","US","","","","","","","","","","","http://www.maxprod.com/products/DRC-72A114C.asp","D-00000275","01tO400000318tEIAQ","0ZE7A00000001i9WAA","Walter-EN_US","7/32, SOL CARB 2 FL END MIL SGL END 7200"
"","","","","US","","","","","","","","","","","http://www.maxprod.com/products/DRC-1400A218.asp","D-00000276","01tO400000318tFIAQ","0ZE7A00000001i9WAA","Walter-EN_US","1-9/32,TAPER SHANK DRILL #4 M.T. - 1400"
"","","","","US","","","","","","","","","","","https://www.tenaquip.com/product/drillco-sandd-reduced-shank-drill-bit-3-4-high-speed-steel-3-flute-118-point-1000a148-ual563","D-00000277","01tO400000318tGIAQ","0ZE7A00000001gNWAQ","Walter-EN_CA","3/4,S&D DRILL 1/2"" SHANK - 1000"
"","","","","US","","","","","","","","","","","http://www.maxprod.com/products/DRC-1000A148.asp","D-00000278","01tO400000318tGIAQ","0ZE7A00000001i9WAA","Walter-EN_US","3/4,S&D DRILL 1/2"" SHANK - 1000"
"","","","","US","","","","","","","","","","","https://www.tenaquip.com/product/drillco-straight-flute-hand-tap-high-speed-steel-m22x045-thread-28a022ab-uap850","D-00000279","01tO400000318tHIAQ","0ZE7A00000001gNWAQ","Walter-EN_CA","2.2MM-0.45 3FL BOTTOM TAP  - 2800"
"","","","","US","","","","","","","","","","","http://www.maxprod.com/products/DRC-28A022AB.asp","D-00000280","01tO400000318tHIAQ","0ZE7A00000001i9WAA","Walter-EN_US","2.2MM-0.45 3FL BOTTOM TAP  - 2800"
"","","","","US","","","","","","","","","","","https://www.lethfast.ca/products/wal01e708","D-00000281","01tO400000318tIIAQ","0ZE7A00000001gNWAQ","Walter-EN_CA","SST PRENTICE DRILL SET"
"","","","","US","","","","","","","","","","","https://www.acklandsgrainger.com/en/product/p/WLT01E708","D-00000282","01tO400000318tIIAQ","0ZE7A00000001gNWAQ","Walter-EN_CA","SST PRENTICE DRILL SET"
"","","","","US","","","","","","","","","","","https://www.tenaquip.com/product/walter-surface-technologies-drill-bit-set-8-pieces-high-speed-steel-01e708-ue136","D-00000283","01tO400000318tIIAQ","0ZE7A00000001gNWAQ","Walter-EN_CA","SST PRENTICE DRILL SET"
"","","","","US","","","","","","","","","","","https://eGrimesDirect.com/products/walter-01e708","D-00000284","01tO400000318tIIAQ","0ZE7A00000001gNWAQ","Walter-EN_CA","SST PRENTICE DRILL SET"
"","","","","US","","","","","","","","","","","https://targatools.com/products/walter-01e708","D-00000285","01tO400000318tIIAQ","0ZE7A00000001gNWAQ","Walter-EN_CA","SST PRENTICE DRILL SET"
"","","","","US","","","","","","","","","","","https://greggdistributors.ca/product/wal01e708","D-00000286","01tO400000318tIIAQ","0ZE7A00000001gNWAQ","Walter-EN_CA","SST PRENTICE DRILL SET"
"","","","","US","","","","","","","","","","","https://ohcanadasupply.ca/product/wal01e708","D-00000287","01tO400000318tIIAQ","0ZE7A00000001gNWAQ","Walter-EN_CA","SST PRENTICE DRILL SET"
"","","","","US","","","","","","","","","","","http://www.maxprod.com/products/WAL-15F108.asp","D-00000288","01tO400000318tIIAQ","0ZE7A00000001i9WAA","Walter-EN_US","SST PRENTICE DRILL SET"
"","","","","US","","","","","","","","","","","http://www.maxprod.com/products/DRC-91N140.asp","D-00000289","01tO4000002yXRUIA2","0ZE7A00000001i9WAA","Walter-EN_US","5/8 1"" DOC ANNULAR CUTTER NITRO -9100N"
"","","","","US","","","","","","","","","","","https://www.tenaquip.com/product/drillco-single-cut-ballnose-cylinder-burr-7c148bsc-uar732","D-00000290","01tO4000002yXRVIA2","0ZE7A00000001gNWAQ","Walter-EN_CA","SC-7,SOLID CARBIDE BUR SINGLE CUT -7000C"
"","","","","US","","","","","","","","","","","http://www.maxprod.com/products/DRC-7C148BSC.asp","D-00000291","01tO4000002yXRVIA2","0ZE7A00000001i9WAA","Walter-EN_US","SC-7,SOLID CARBIDE BUR SINGLE CUT -7000C"
"","","","","US","","","","","","","","","","","https://www.tenaquip.com/product/drillco-hardened-extension-sleeve-144e013h-uap184","D-00000292","01tO4000002yXRXIA2","0ZE7A00000001gNWAQ","Walter-EN_CA","#1-#3,HARDENED EXTENSION SLEEVE - 1440"
"","","","","US","","","","","","","","","","","http://www.maxprod.com/products/DRC-144E013H.asp","D-00000293","01tO4000002yXRXIA2","0ZE7A00000001i9WAA","Walter-EN_US","#1-#3,HARDENED EXTENSION SLEEVE - 1440"
"","","","","US","","","","","","","","","","","https://www.weldingoutfitter.com/products/walter-09d102-2-24-grit-spinlock-aluminum-oxide-resin-fiber-flap-disc-25-pack","D-00000294","01tO4000002yXRYIA2","0ZE7A00000001i9WAA","Walter-EN_US","SPINLOCK A/O RESIN FIBER DISC, 2"" G24"
"","","","","US","","","","","","","","","","","http://www.maxprod.com/products/WAL-53G098.asp","D-00000295","01tO4000002yXRYIA2","0ZE7A00000001i9WAA","Walter-EN_US","SPINLOCK A/O RESIN FIBER DISC, 2"" G24"
"","","","","US","","","","","","","","","","","http://www.maxprod.com/products/WAL-48R544.asp","D-00000296","01tO4000002yXRaIAM","0ZE7A00000001i9WAA","Walter-EN_US","CABLE COMPLETE FOR MICROSWITCH"
"","","","","US","","","","","","","","","","","https://www.tenaquip.com/product/drillco-heavy-duty-jobber-drill-bit-480a047-uam674","D-00000297","01tO40000032CZmIAM","0ZE7A00000001gNWAQ","Walter-EN_CA","#47,HD JOBBER DRILL  - 480"
"","","","","US","","","","","","","","","","","http://www.maxprod.com/products/DRC-480A047.asp","D-00000298","01tO40000032CZmIAM","0ZE7A00000001i9WAA","Walter-EN_US","#47,HD JOBBER DRILL  - 480"
"","","","","US","","","","","","","","","","","https://sbsimpson.com/product/walter-53k114-surface-disinfectant-70-alcohol-946ml-chemicals-cleaners-and-coatings-90-02455/","D-00000299","01tO40000032CZoIAM","0ZE7A00000001gNWAQ","Walter-EN_CA","WLT CAN SURFACE DISINFECT. 70%ALC 946ML"
"","","","","US","","","","","","","","","","","http://www.maxprod.com/products/DRC-72A114C.asp","D-00000300","01tO400000318tEIAQ","0ZE7A00000001i9WAA","Walter-EN_US","7/32, SOL CARB 2 FL END MIL SGL END 7200"
"","","","","US","","","","","","","","","","","http://www.maxprod.com/products/DRC-1400A218.asp","D-00000301","01tO400000318tFIAQ","0ZE7A00000001i9WAA","Walter-EN_US","1-9/32,TAPER SHANK DRILL #4 M.T. - 1400"
"","","","","US","","","","","","","","","","","https://www.tenaquip.com/product/drillco-sandd-reduced-shank-drill-bit-3-4-high-speed-steel-3-flute-118-point-1000a148-ual563","D-00000302","01tO400000318tGIAQ","0ZE7A00000001gNWAQ","Walter-EN_CA","3/4,S&D DRILL 1/2"" SHANK - 1000"
"","","","","US","","","","","","","","","","","http://www.maxprod.com/products/DRC-1000A148.asp","D-00000303","01tO400000318tGIAQ","0ZE7A00000001i9WAA","Walter-EN_US","3/4,S&D DRILL 1/2"" SHANK - 1000"
"","","","","US","","","","","","","","","","","https://www.tenaquip.com/product/drillco-straight-flute-hand-tap-high-speed-steel-m22x045-thread-28a022ab-uap850","D-00000304","01tO400000318tHIAQ","0ZE7A00000001gNWAQ","Walter-EN_CA","2.2MM-0.45 3FL BOTTOM TAP  - 2800"
"","","","","US","","","","","","","","","","","http://www.maxprod.com/products/DRC-28A022AB.asp","D-00000305","01tO400000318tHIAQ","0ZE7A00000001i9WAA","Walter-EN_US","2.2MM-0.45 3FL BOTTOM TAP  - 2800"
"","","","","US","","","","","","","","","","","https://www.lethfast.ca/products/wal01e708","D-00000306","01tO400000318tIIAQ","0ZE7A00000001gNWAQ","Walter-EN_CA","SST PRENTICE DRILL SET"
"","","","","US","","","","","","","","","","","https://www.acklandsgrainger.com/en/product/p/WLT01E708","D-00000307","01tO400000318tIIAQ","0ZE7A00000001gNWAQ","Walter-EN_CA","SST PRENTICE DRILL SET"
"","","","","US","","","","","","","","","","","https://www.tenaquip.com/product/walter-surface-technologies-drill-bit-set-8-pieces-high-speed-steel-01e708-ue136","D-00000308","01tO400000318tIIAQ","0ZE7A00000001gNWAQ","Walter-EN_CA","SST PRENTICE DRILL SET"
"","","","","US","","","","","","","","","","","https://eGrimesDirect.com/products/walter-01e708","D-00000309","01tO400000318tIIAQ","0ZE7A00000001gNWAQ","Walter-EN_CA","SST PRENTICE DRILL SET"
"","","","","US","","","","","","","","","","","https://targatools.com/products/walter-01e708","D-00000310","01tO400000318tIIAQ","0ZE7A00000001gNWAQ","Walter-EN_CA","SST PRENTICE DRILL SET"
"","","","","US","","","","","","","","","","","https://greggdistributors.ca/product/wal01e708","D-00000311","01tO400000318tIIAQ","0ZE7A00000001gNWAQ","Walter-EN_CA","SST PRENTICE DRILL SET"
"","","","","US","","","","","","","","","","","https://ohcanadasupply.ca/product/wal01e708","D-00000312","01tO400000318tIIAQ","0ZE7A00000001gNWAQ","Walter-EN_CA","SST PRENTICE DRILL SET"
"","","","","US","","","","","","","","","","","http://www.maxprod.com/products/WAL-15F108.asp","D-00000313","01tO400000318tIIAQ","0ZE7A00000001i9WAA","Walter-EN_US","SST PRENTICE DRILL SET"
"","","","","US","","","","","","","","","","","http://www.maxprod.com/products/DRC-215N128C.asp","D-00000314","01tO40000032QxZIAU","0ZE7A00000001i9WAA","Walter-EN_US","7/16 -14 NITRO MAX SPR POINT TAP -2150N"
"","","","","US","","","","","","","","","","","https://www.tenaquip.com/product/drillco-nitro-max-ansi-ansi-spiral-point-tap-high-speed-cobalt-7-16-14-thread-3-5-32-l-215n128c-uaq652","D-00000315","01tO40000032QxZIAU","0ZE7A00000001gNWAQ","Walter-EN_CA","7/16 -14 NITRO MAX SPR POINT TAP -2150N"
"","","","","US","","","","","","","","","","","http://www.maxprod.com/products/DRC-215N128C.asp","D-00000316","01tO40000032QxZIAU","0ZE7A00000001i9WAA","Walter-EN_US","7/16 -14 NITRO MAX SPR POINT TAP -2150N"
"","","","","US","","","","","","","","","","","https://www.tenaquip.com/product/drillco-nitro-max-ansi-ansi-spiral-point-tap-high-speed-cobalt-7-16-14-thread-3-5-32-l-215n128c-uaq652","D-00000317","01tO40000032QxZIAU","0ZE7A00000001gNWAQ","Walter-EN_CA","7/16 -14 NITRO MAX SPR POINT TAP -2150N"
"","","","","US","","","","","","","","","","","http://www.maxprod.com/products/DRC-428A144.asp","D-00000318","01tO40000037TJhIAM","0ZE7A00000001i9WAA","Walter-EN_US","11/16,HIGH 1/2 SHNK CNSTR REAMER -4285"
"","","","","US","","","","","","","","","","","https://www.acklandsgrainger.com/en/product/p/WLT01D542","D-00000319","01tO40000037TJiIAM","0ZE7A00000001gNWAQ","Walter-EN_CA","4.20MM SST DRILL BIT"
"","","","","US","","","","","","","","","","","https://www.airliquide.ca/sst-135-metric-jobber/product/W00000906?skuRepositoryId=A0184912","D-00000320","01tO40000037TJiIAM","0ZE7A00000001gNWAQ","Walter-EN_CA","4.20MM SST DRILL BIT"
"","","","","US","","","","","","","","","","","https://greggdistributors.ca/product/wal01d542","D-00000321","01tO40000037TJiIAM","0ZE7A00000001gNWAQ","Walter-EN_CA","4.20MM SST DRILL BIT"
"","","","","US","","","","","","","","","","","http://www.maxprod.com/products/WAL-15D044.asp","D-00000322","01tO40000037TJiIAM","0ZE7A00000001i9WAA","Walter-EN_US","4.20MM SST DRILL BIT"
"","","","","US","","","","","","","","","","","https://ohcanadasupply.ca/product/wal01d542","D-00000323","01tO40000037TJiIAM","0ZE7A00000001gNWAQ","Walter-EN_CA","4.20MM SST DRILL BIT"
"","","","","US","","","","","","","","","","","https://www.tenaquip.com/product/walter-surface-technologies-sst-jobbers-length-drill-bit-01d542-ue124","D-00000324","01tO40000037TJiIAM","0ZE7A00000001gNWAQ","Walter-EN_CA","4.20MM SST DRILL BIT"
"","","","","US","","","","","","","","","","","http://www.maxprod.com/products/DRC-28A160AB.asp","D-00000325","01tO40000037TJjIAM","0ZE7A00000001i9WAA","Walter-EN_US","16MM-2.00 4FL BOTTOM TAP  - 2800"
"","","","","US","","","","","","","","","","","https://www.tenaquip.com/product/drillco-straight-flute-hand-tap-high-speed-steel-m16x2-thread-28a160ab-uap922","D-00000326","01tO40000037TJjIAM","0ZE7A00000001gNWAQ","Walter-EN_CA","16MM-2.00 4FL BOTTOM TAP  - 2800"
"","","","","US","","","","","","","","","","","http://www.maxprod.com/products/DRC-1000F157.asp","D-00000327","01tO40000037TJkIAM","0ZE7A00000001i9WAA","Walter-EN_US","57/64,3-FLAT S&D DRILL 1/2' SHANK -1000F"
"","","","","US","","","","","","","","","","","https://canadaweldingsupply.ca/products/e-weld-pre-coated-nozzle-lincoln-pro-250l-350?variant=41057987788973","D-00000328","01tO40000037TJlIAM","0ZE7A00000001gNWAQ","Walter-EN_CA","EW WN LINCOLN STYLE 250/350A 5/8 F"
"","","","","US","","","","","","","","","","","http://www.maxprod.com/products/WAL-54C043.asp","D-00000329","01tO40000037TJlIAM","0ZE7A00000001i9WAA","Walter-EN_US","EW WN LINCOLN STYLE 250/350A 5/8 F"
"","","","","US","","","","","","","","","","","https://www.tenaquip.com/product/walter-surface-technologies-e-weld-pre-coated-nozzles-54c043-tv628","D-00000330","01tO40000037TJlIAM","0ZE7A00000001gNWAQ","Walter-EN_CA","EW WN LINCOLN STYLE 250/350A 5/8 F"
